{"type": "FeatureCollection", "features": [{"type": "Feature", "properties": {"norad_id": 2807, "name": "OPS 7218 (TRANSIT 16)", "group": "nnss", "lat": 32.350379800853624, "lon": -5.631649436067022, "alt_km": 1068.6025646501575, "timestamp": "2025-12-08T08:59:01.034249+00:00", "meta": {"OBJECT_NAME": "OPS 7218 (TRANSIT 16)", "OBJECT_ID": "1967-048A", "EPOCH": "2025-12-07T22:22:47.201664", "MEAN_MOTION": 13.5072089, "ECCENTRICITY": 0.00217446, "INCLINATION": 89.6732, "RA_OF_ASC_NODE": 354.1758, "ARG_OF_PERICENTER": 126.9923, "MEAN_ANOMALY": 278.5532, "EPHEMERIS_TYPE": 0, "CLASSIFICATION_TYPE": "U", "NORAD_CAT_ID": 2807, "ELEMENT_SET_NO": 999, "REV_AT_EPOCH": 88211, "BSTAR": 0.00022584266, "MEAN_MOTION_DOT": 1.56e-06, "MEAN_MOTION_DDOT": 0}, "tle": {"line1": "1 02807U 67048A   25341.93249076  .00000156  00000+0  22584-3 0  9992", "line2": "2 02807  89.6732 354.1758 0021744 126.9923 278.5532 13.50720890882114"}}, "geometry": {"type": "Point", "coordinates": [-5.631649436067022, 32.350379800853624]}}, {"type": "Feature", "properties": {"norad_id": 2965, "name": "OPS 4947 (TRANSIT 17)", "group": "nnss", "lat": 54.36295138573901, "lon": 25.815615746464392, "alt_km": 1087.7566503407643, "timestamp": "2025-12-08T08:59:01.034271+00:00", "meta": {"OBJECT_NAME": "OPS 4947 (TRANSIT 17)", "OBJECT_ID": "1967-092A", "EPOCH": "2025-12-07T21:09:13.300416", "MEAN_MOTION": 13.53451787, "ECCENTRICITY": 0.00459171, "INCLINATION": 89.25, "RA_OF_ASC_NODE": 24.8062, "ARG_OF_PERICENTER": 249.072, "MEAN_ANOMALY": 284.9855, "EPHEMERIS_TYPE": 0, "CLASSIFICATION_TYPE": "U", "NORAD_CAT_ID": 2965, "ELEMENT_SET_NO": 999, "REV_AT_EPOCH": 87031, "BSTAR": 0.000273568, "MEAN_MOTION_DOT": 1.96e-06, "MEAN_MOTION_DDOT": 0}, "tle": {"line1": "1 02965U 67092A   25341.88140394  .00000196  00000+0  27357-3 0  9990", "line2": "2 02965  89.2500  24.8062 0045917 249.0720 284.9855 13.53451787870314"}}, "geometry": {"type": "Point", "coordinates": [25.815615746464392, 54.36295138573901]}}, {"type": "Feature", "properties": {"norad_id": 3133, "name": "OPS 7034 (TRANSIT 18)", "group": "nnss", "lat": -53.867834520242546, "lon": 93.58883791842227, "alt_km": 1039.670070441789, "timestamp": "2025-12-08T08:59:01.034285+00:00", "meta": {"OBJECT_NAME": "OPS 7034 (TRANSIT 18)", "OBJECT_ID": "1968-012A", "EPOCH": "2025-12-07T21:31:08.051808", "MEAN_MOTION": 13.51563999, "ECCENTRICITY": 0.00733862, "INCLINATION": 90.0275, "RA_OF_ASC_NODE": 273.6252, "ARG_OF_PERICENTER": 183.2093, "MEAN_ANOMALY": 247.0145, "EPHEMERIS_TYPE": 0, "CLASSIFICATION_TYPE": "U", "NORAD_CAT_ID": 3133, "ELEMENT_SET_NO": 999, "REV_AT_EPOCH": 56853, "BSTAR": 0.00026139731, "MEAN_MOTION_DOT": 1.83e-06, "MEAN_MOTION_DDOT": 0}, "tle": {"line1": "1 03133U 68012A   25341.89662097  .00000183  00000+0  26140-3 0  9996", "line2": "2 03133  90.0275 273.6252 0073386 183.2093 247.0145 13.51563999568536"}}, "geometry": {"type": "Point", "coordinates": [93.58883791842227, -53.867834520242546]}}, {"type": "Feature", "properties": {"norad_id": 4507, "name": "NNSS 19 (TRANSIT 19)", "group": "nnss", "lat": -26.709841460381362, "lon": 54.527822299867346, "alt_km": 1092.1128862745472, "timestamp": "2025-12-08T08:59:01.034297+00:00", "meta": {"OBJECT_NAME": "NNSS 19 (TRANSIT 19)", "OBJECT_ID": "1970-067A", "EPOCH": "2025-12-07T23:03:41.706432", "MEAN_MOTION": 13.51313185, "ECCENTRICITY": 0.01708532, "INCLINATION": 90.0058, "RA_OF_ASC_NODE": 234.5305, "ARG_OF_PERICENTER": 307.3368, "MEAN_ANOMALY": 51.2321, "EPHEMERIS_TYPE": 0, "CLASSIFICATION_TYPE": "U", "NORAD_CAT_ID": 4507, "ELEMENT_SET_NO": 999, "REV_AT_EPOCH": 72157, "BSTAR": 0.00030634417, "MEAN_MOTION_DOT": 2.25e-06, "MEAN_MOTION_DDOT": 0}, "tle": {"line1": "1 04507U 70067A   25341.96089938  .00000225  00000+0  30634-3 0  9990", "line2": "2 04507  90.0058 234.5305 0170853 307.3368  51.2321 13.51313185721573"}}, "geometry": {"type": "Point", "coordinates": [54.527822299867346, -26.709841460381362]}}, {"type": "Feature", "properties": {"norad_id": 6909, "name": "NNSS 20 (TRANSIT 20)", "group": "nnss", "lat": -36.07143591074123, "lon": -104.98536388964838, "alt_km": 1069.4351468739678, "timestamp": "2025-12-08T08:59:01.034309+00:00", "meta": {"OBJECT_NAME": "NNSS 20 (TRANSIT 20)", "OBJECT_ID": "1973-081A", "EPOCH": "2025-12-07T19:09:08.609184", "MEAN_MOTION": 13.71430949, "ECCENTRICITY": 0.0156606, "INCLINATION": 89.8561, "RA_OF_ASC_NODE": 255.1282, "ARG_OF_PERICENTER": 92.9417, "MEAN_ANOMALY": 268.9679, "EPHEMERIS_TYPE": 0, "CLASSIFICATION_TYPE": "U", "NORAD_CAT_ID": 6909, "ELEMENT_SET_NO": 999, "REV_AT_EPOCH": 80293, "BSTAR": 0.00037191862, "MEAN_MOTION_DOT": 3.77e-06, "MEAN_MOTION_DDOT": 0}, "tle": {"line1": "1 06909U 73081A   25341.79801631  .00000377  00000+0  37192-3 0  9994", "line2": "2 06909  89.8561 255.1282 0156606  92.9417 268.9679 13.71430949802934"}}, "geometry": {"type": "Point", "coordinates": [-104.98536388964838, -36.07143591074123]}}, {"type": "Feature", "properties": {"norad_id": 10457, "name": "TRANSAT", "group": "nnss", "lat": -70.97961078584511, "lon": -100.22727636995585, "alt_km": 1071.222077544875, "timestamp": "2025-12-08T08:59:01.034320+00:00", "meta": {"OBJECT_NAME": "TRANSAT", "OBJECT_ID": "1977-106A", "EPOCH": "2025-12-07T19:50:55.366944", "MEAN_MOTION": 13.48942503, "ECCENTRICITY": 0.00249351, "INCLINATION": 89.6482, "RA_OF_ASC_NODE": 78.7709, "ARG_OF_PERICENTER": 203.921, "MEAN_ANOMALY": 270.65, "EPHEMERIS_TYPE": 0, "CLASSIFICATION_TYPE": "U", "NORAD_CAT_ID": 10457, "ELEMENT_SET_NO": 999, "REV_AT_EPOCH": 36677, "BSTAR": 0.00021915571, "MEAN_MOTION_DOT": 1.47e-06, "MEAN_MOTION_DDOT": 0}, "tle": {"line1": "1 10457U 77106A   25341.82702971  .00000147  00000+0  21916-3 0  9992", "line2": "2 10457  89.6482  78.7709 0024935 203.9210 270.6500 13.48942503366772"}}, "geometry": {"type": "Point", "coordinates": [-100.22727636995585, -70.97961078584511]}}, {"type": "Feature", "properties": {"norad_id": 12458, "name": "NOVA 1", "group": "nnss", "lat": -15.33800473720894, "lon": -88.51265693194149, "alt_km": 1174.9649271020926, "timestamp": "2025-12-08T08:59:01.034331+00:00", "meta": {"OBJECT_NAME": "NOVA 1", "OBJECT_ID": "1981-044A", "EPOCH": "2025-12-07T21:43:11.372736", "MEAN_MOTION": 13.2327777, "ECCENTRICITY": 0.00157406, "INCLINATION": 89.8524, "RA_OF_ASC_NODE": 91.4535, "ARG_OF_PERICENTER": 115.8754, "MEAN_ANOMALY": 4.6976, "EPHEMERIS_TYPE": 0, "CLASSIFICATION_TYPE": "U", "NORAD_CAT_ID": 12458, "ELEMENT_SET_NO": 999, "REV_AT_EPOCH": 15122, "BSTAR": 0.00027007074, "MEAN_MOTION_DOT": 1.23e-06, "MEAN_MOTION_DDOT": 0}, "tle": {"line1": "1 12458U 81044A   25341.90499274  .00000123  00000+0  27007-3 0  9990", "line2": "2 12458  89.8524  91.4535 0015740 115.8754   4.6976 13.23277770151225"}}, "geometry": {"type": "Point", "coordinates": [-88.51265693194149, -15.33800473720894]}}, {"type": "Feature", "properties": {"norad_id": 15362, "name": "NOVA 3", "group": "nnss", "lat": 71.72372171670493, "lon": 80.1126850365537, "alt_km": 1165.1952242385014, "timestamp": "2025-12-08T08:59:01.034343+00:00", "meta": {"OBJECT_NAME": "NOVA 3", "OBJECT_ID": "1984-110A", "EPOCH": "2025-12-07T20:29:57.370272", "MEAN_MOTION": 13.23043665, "ECCENTRICITY": 0.00308769, "INCLINATION": 90.1223, "RA_OF_ASC_NODE": 80.4771, "ARG_OF_PERICENTER": 345.7321, "MEAN_ANOMALY": 129.504, "EPHEMERIS_TYPE": 0, "CLASSIFICATION_TYPE": "U", "NORAD_CAT_ID": 15362, "ELEMENT_SET_NO": 999, "REV_AT_EPOCH": 98634, "BSTAR": 0.00026254462, "MEAN_MOTION_DOT": 1.19e-06, "MEAN_MOTION_DDOT": 0}, "tle": {"line1": "1 15362U 84110A   25341.85413623  .00000119  00000+0  26254-3 0  9990", "line2": "2 15362  90.1223  80.4771 0030876 345.7321 129.5040 13.23043665986346"}}, "geometry": {"type": "Point", "coordinates": [80.1126850365537, 71.72372171670493]}}, {"type": "Feature", "properties": {"norad_id": 15935, "name": "OSCAR 30", "group": "nnss", "lat": -53.43956260554314, "lon": 99.99811095391428, "alt_km": 1239.8781646888474, "timestamp": "2025-12-08T08:59:01.034355+00:00", "meta": {"OBJECT_NAME": "OSCAR 30", "OBJECT_ID": "1985-066A", "EPOCH": "2025-12-07T21:16:26.776128", "MEAN_MOTION": 13.36076993, "ECCENTRICITY": 0.0169408, "INCLINATION": 90.1649, "RA_OF_ASC_NODE": 99.7677, "ARG_OF_PERICENTER": 97.4493, "MEAN_ANOMALY": 24.8367, "EPHEMERIS_TYPE": 0, "CLASSIFICATION_TYPE": "U", "NORAD_CAT_ID": 15935, "ELEMENT_SET_NO": 999, "REV_AT_EPOCH": 96388, "BSTAR": 0.0002237762, "MEAN_MOTION_DOT": 1.35e-06, "MEAN_MOTION_DDOT": 0}, "tle": {"line1": "1 15935U 85066A   25341.88642102  .00000135  00000+0  22378-3 0  9997", "line2": "2 15935  90.1649  99.7677 0169408  97.4493  24.8367 13.36076993963884"}}, "geometry": {"type": "Point", "coordinates": [99.99811095391428, -53.43956260554314]}}, {"type": "Feature", "properties": {"norad_id": 15936, "name": "OSCAR 24", "group": "nnss", "lat": 23.194141578193733, "lon": 92.15145029203057, "alt_km": 1097.9639043725092, "timestamp": "2025-12-08T08:59:01.034365+00:00", "meta": {"OBJECT_NAME": "OSCAR 24", "OBJECT_ID": "1985-066B", "EPOCH": "2025-12-07T20:50:07.499904", "MEAN_MOTION": 13.3593472, "ECCENTRICITY": 0.01704171, "INCLINATION": 90.1788, "RA_OF_ASC_NODE": 92.2192, "ARG_OF_PERICENTER": 103.9366, "MEAN_ANOMALY": 8.3198, "EPHEMERIS_TYPE": 0, "CLASSIFICATION_TYPE": "U", "NORAD_CAT_ID": 15936, "ELEMENT_SET_NO": 999, "REV_AT_EPOCH": 96578, "BSTAR": 0.00022749924, "MEAN_MOTION_DOT": 1.37e-06, "MEAN_MOTION_DDOT": 0}, "tle": {"line1": "1 15936U 85066B   25341.86814236  .00000137  00000+0  22750-3 0  9991", "line2": "2 15936  90.1788  92.2192 0170417 103.9366   8.3198 13.35934720965783"}}, "geometry": {"type": "Point", "coordinates": [92.15145029203057, 23.194141578193733]}}]}